NORAD_CAT_ID,OBJECT_NAME,OBJECT_TYPE,EPOCH,MEAN_MOTION,ECCENTRICITY,INCLINATION,RA_OF_ASC_NODE,ARG_OF_PERICENTER,MEAN_ANOMALY,BSTAR,MEAN_MOTION_DOT,MEAN_MOTION_DDOT,TLE_LINE0,TLE_LINE1,TLE_LINE2,SEMIMAJOR_AXIS,PERIOD,APOGEE,PERIGEE,DECAYED
55952.0,STARLINK-5893,PAYLOAD,2024-05-06 04:07:21,14.98316513,0.0003144,69.9988,160.2318,269.1574,90.9224,0.00012364,1.382e-05,0.0,0 STARLINK-5893,1 55952U 23037AQ  24127.17177563  .00001382  00000-0  12364-3 0  9997,2 55952  69.9988 160.2318 0003144 269.1574  90.9224 14.98316513 64078,6950.235,96.108,574.285,569.914,0.0
55952.0,STARLINK-5893,PAYLOAD,2024-05-06 12:08:01,14.98320941,0.0003143,69.9988,159.3903,269.4428,90.637,0.0001376,1.549e-05,0.0,0 STARLINK-5893,1 55952U 23037AQ  24127.50557508  .00001549  00000-0  13760-3 0  9991,2 55952  69.9988 159.3903 0003143 269.4428  90.6370 14.98320941 64122,6950.221,96.108,574.27,569.901,0.0
55952.0,STARLINK-5893,PAYLOAD,2024-05-07 04:09:22,14.98329013,0.000319,69.9988,157.7072,269.3533,90.726,0.00011877,1.324e-05,0.0,0 STARLINK-5893,1 55952U 23037AQ  24128.17317262  .00001324  00000-0  11877-3 0  9994,2 55952  69.9988 157.7072 0003190 269.3533  90.7260 14.98329013 64228,6950.196,96.107,574.278,569.844,0.0
55952.0,STARLINK-5893,PAYLOAD,2024-05-07 12:10:02,14.98331952,0.000317,69.9988,156.8655,269.3991,90.6805,0.00013928,1.569e-05,0.0,0 STARLINK-5893,1 55952U 23037AQ  24128.50697000  .00001569  00000-0  13928-3 0  9992,2 55952  69.9988 156.8655 0003170 269.3991  90.6805 14.98331952 64275,6950.187,96.107,574.255,569.849,0.0
55952.0,STARLINK-5893,PAYLOAD,2024-05-07 18:34:34,14.98335578,0.0003176,69.9988,156.1922,269.4621,90.6175,0.0001315,1.477e-05,0.0,0 STARLINK-5893,1 55952U 23037AQ  24128.77400715  .00001477  00000-0  13150-3 0  9991,2 55952  69.9988 156.1922 0003176 269.4621  90.6175 14.98335578 64315,6950.176,96.107,574.248,569.833,0.0
55952.0,STARLINK-5893,PAYLOAD,2024-05-08 04:11:22,14.98339788,0.0003189,69.9987,155.1823,269.2353,90.8441,0.00013179,1.48e-05,0.0,0 STARLINK-5893,1 55952U 23037AQ  24129.17456243  .00001480  00000-0  13179-3 0  9998,2 55952  69.9987 155.1823 0003189 269.2353  90.8441 14.98339788 64378,6950.163,96.106,574.244,569.811,0.0
55952.0,STARLINK-5893,PAYLOAD,2024-05-08 12:12:02,14.98342464,0.0003214,69.9987,154.3404,270.1244,89.9547,0.00012836,1.439e-05,0.0,0 STARLINK-5893,1 55952U 23037AQ  24129.50835835  .00001439  00000-0  12836-3 0  9996,2 55952  69.9987 154.3404 0003214 270.1244  89.9547 14.98342464 64420,6950.154,96.106,574.253,569.786,0.0
55952.0,STARLINK-5893,PAYLOAD,2024-05-08 18:36:34,14.98339448,0.0003198,69.9988,153.6672,269.875,90.2043,4.107e-05,3.97e-06,0.0,0 STARLINK-5893,1 55952U 23037AQ  24129.77540039  .00000397  00000-0  41070-4 0  9999,2 55952  69.9988 153.6672 0003198 269.8750  90.2043 14.98339448 64466,6950.164,96.106,574.251,569.806,0.0
55952.0,STARLINK-5893,PAYLOAD,2024-05-09 04:13:23,14.98337363,0.0003141,69.9989,152.6574,270.2951,89.7848,-3.1951e-05,-4.74e-06,0.0,0 STARLINK-5893,1 55952U 23037AQ  24130.17596139 -.00000474  00000-0 -31951-4 0  9992,2 55952  69.9989 152.6574 0003141 270.2951  89.7848 14.98337363 64521,6950.17,96.107,574.218,569.852,0.0
55952.0,STARLINK-5893,PAYLOAD,2024-05-09 10:37:55,14.98337554,0.0003141,69.9989,151.9841,270.4883,89.5917,-2.9031e-05,-4.39e-06,0.0,0 STARLINK-5893,1 55952U 23037AQ  24130.44299958 -.00000439  00000-0 -29031-4 0  9998,2 55952  69.9989 151.9841 0003141 270.4883  89.5917 14.98337554 64567,6950.17,96.107,574.218,569.851,0.0
55952.0,STARLINK-5893,PAYLOAD,2024-05-10 04:15:23,14.98336732,0.0003083,69.9991,150.1329,270.3037,89.7768,-0.00010663,-1.365e-05,0.0,0 STARLINK-5893,1 55952U 23037AQ  24131.17735845 -.00001365  00000-0 -10663-3 0  9998,2 55952  69.9991 150.1329 0003083 270.3037  89.7768 14.98336732 64672,6950.172,96.107,574.18,569.894,0.0
55952.0,STARLINK-5893,PAYLOAD,2024-05-10 10:39:55,14.98335106,0.0003073,69.9991,149.4597,269.747,90.3337,-0.0001013,-1.302e-05,0.0,0 STARLINK-5893,1 55952U 23037AQ  24131.44439811 -.00001302  00000-0 -10130-3 0  9992,2 55952  69.9991 149.4597 0003073 269.7470  90.3337 14.98335106 64711,6950.177,96.107,574.178,569.906,0.0
55952.0,STARLINK-5893,PAYLOAD,2024-05-10 18:40:36,14.98333158,0.0003173,69.9989,148.6181,271.6337,88.4458,-7.8549e-05,-1.03e-05,0.0,0 STARLINK-5893,1 55952U 23037AQ  24131.77819753 -.00001030  00000-0 -78549-4 0  9992,2 55952  69.9989 148.6181 0003173 271.6337  88.4458 14.98333158 64765,6950.183,96.107,574.253,569.843,0.0
55952.0,STARLINK-5893,PAYLOAD,2024-05-11 04:17:24,14.98331804,0.0003201,69.9987,147.6078,270.9417,89.1375,-6.3511e-06,-1.69e-06,0.0,0 STARLINK-5893,1 55952U 23037AQ  24132.17875582 -.00000169  00000-0 -63511-5 0  9995,2 55952  69.9987 147.6078 0003201 270.9417  89.1375 14.98331804 64829,6950.187,96.107,574.277,569.828,0.0
55952.0,STARLINK-5893,PAYLOAD,2024-05-11 10:41:55,14.98342163,0.0003144,69.9987,146.9345,270.8393,89.2406,0.00010349,1.142e-05,0.0,0 STARLINK-5893,1 55952U 23037AQ  24132.44578600  .00001142  00000-0  10349-3 0  9995,2 55952  69.9987 146.9345 0003144 270.8393  89.2406 14.98342163 64866,6950.155,96.106,574.205,569.835,0.0
55952.0,STARLINK-5893,PAYLOAD,2024-05-11 18:42:36,14.98335513,0.0002839,69.9995,146.0911,267.6701,92.4133,4.9173e-05,4.94e-06,0.0,0 STARLINK-5893,1 55952U 23037AQ  24132.77958963  .00000494  00000-0  49173-4 0  9992,2 55952  69.9995 146.0911 0002839 267.6701  92.4133 14.98335513 64912,6950.176,96.107,574.014,570.068,0.0
55952.0,STARLINK-5893,PAYLOAD,2024-05-12 05:55:33,14.98330389,0.0003032,69.999,144.9141,271.385,88.6962,1.3584e-05,6.9e-07,0.0,0 STARLINK-5893,1 55952U 23037AQ  24133.24691226  .00000069  00000-0  13584-4 0  9996,2 55952  69.9990 144.9141 0003032 271.3850  88.6962 14.98330389 64982,6950.192,96.107,574.164,569.949,0.0
55952.0,STARLINK-5893,PAYLOAD,2024-05-12 10:43:57,14.98329462,0.0003149,69.9987,144.4098,271.8013,88.2786,6.9078e-07,-8.5e-07,0.0,0 STARLINK-5893,1 55952U 23037AQ  24133.44719313 -.00000085  00000-0  69078-6 0  9996,2 55952  69.9987 144.4098 0003149 271.8013  88.2786 14.98329462 65014,6950.195,96.107,574.248,569.871,0.0
55952.0,STARLINK-5893,PAYLOAD,2024-05-13 02:45:18,14.98320863,0.0002999,69.9996,142.7281,271.8979,88.1837,-8.9926e-05,-1.166e-05,0.0,0 STARLINK-5893,1 55952U 23037AQ  24134.11480302 -.00001166  00000-0 -89926-4 0  9998,2 55952  69.9996 142.7281 0002999 271.8979  88.1837 14.98320863 65115,6950.221,96.108,574.171,570.002,0.0
55952.0,STARLINK-5893,PAYLOAD,2024-05-13 10:45:59,14.98323213,0.0002898,69.999,141.8846,268.1051,91.9776,-0.00014432,-1.814e-05,0.0,0 STARLINK-5893,1 55952U 23037AQ  24134.44860452 -.00001814  00000-0 -14432-3 0  9991,2 55952  69.9990 141.8846 0002898 268.1051  91.9776 14.98323213 64827,6950.214,96.107,574.093,570.065,0.0
55952.0,STARLINK-5893,PAYLOAD,2024-05-13 17:10:32,14.98315078,0.0002929,69.9993,141.2121,280.756,79.3269,2.508e-05,2.06e-06,0.0,0 STARLINK-5893,1 55952U 23037AQ  24134.71564828  .00000206  00000-0  25080-4 0  9993,2 55952  69.9993 141.2121 0002929 280.7560  79.3269 14.98315078 65200,6950.239,96.108,574.14,570.068,0.0
55952.0,STARLINK-5893,PAYLOAD,2024-05-14 04:23:28,14.98322758,0.0003099,69.9987,140.033,274.449,85.6315,-2.3353e-05,-3.72e-06,0.0,0 STARLINK-5893,1 55952U 23037AQ  24135.18296426 -.00000372  00000-0 -23353-4 0  9998,2 55952  69.9987 140.0330 0003099 274.4490  85.6315 14.98322758 65275,6950.215,96.107,574.234,569.926,0.0
55952.0,STARLINK-5893,PAYLOAD,2024-05-14 09:11:52,14.98323348,0.0003073,69.9987,139.5282,274.1105,85.9703,-1.0465e-05,-2.18e-06,0.0,0 STARLINK-5893,1 55952U 23037AQ  24135.38324451 -.00000218  00000-0 -10465-4 0  9999,2 55952  69.9987 139.5282 0003073 274.1105  85.9703 14.98323348 65300,6950.213,96.107,574.214,569.943,0.0
55952.0,STARLINK-5893,PAYLOAD,2024-05-14 17:12:32,14.98327088,0.0003045,69.9988,138.6864,273.8947,86.1864,-2.1904e-05,-3.54e-06,0.0,0 STARLINK-5893,1 55952U 23037AQ  24135.71704403 -.00000354  00000-0 -21904-4 0  9996,2 55952  69.9988 138.6864 0003045 273.8947  86.1864 14.98327088 65357,6950.202,96.107,574.183,569.951,0.0
55952.0,STARLINK-5893,PAYLOAD,2024-05-15 06:01:37,14.9832495,0.0003137,69.9984,137.3398,273.709,86.3711,0.00011971,1.335e-05,0.0,0 STARLINK-5893,1 55952U 23037AQ  24136.25112376  .00001335  00000-0  11971-3 0  9998,2 55952  69.9984 137.3398 0003137 273.7090  86.3711 14.98324950 65438,6950.209,96.107,574.254,569.893,0.0
55952.0,STARLINK-5893,PAYLOAD,2024-05-15 09:13:53,14.98325667,0.0003123,69.9985,137.0031,274.0591,86.0211,0.00012329,1.378e-05,0.0,0 STARLINK-5893,1 55952U 23037AQ  24136.38464366  .00001378  00000-0  12329-3 0  9996,2 55952  69.9985 137.0031 0003123 274.0591  86.0211 14.98325667 65455,6950.206,96.107,574.242,569.901,0.0
55952.0,STARLINK-5893,PAYLOAD,2024-05-16 06:03:37,14.9833637,0.0003137,69.9984,134.8149,272.8856,87.1944,0.00012899,1.447e-05,0.0,0 STARLINK-5893,1 55952U 23037AQ  24137.25251603  .00001447  00000-0  12899-3 0  9990,2 55952  69.9984 134.8149 0003137 272.8856  87.1944 14.98336370 65586,6950.173,96.107,574.218,569.858,0.0
55952.0,STARLINK-5893,PAYLOAD,2024-05-16 09:15:53,14.98338214,0.0003111,69.9984,134.4781,273.0864,86.9939,0.00014559,1.645e-05,0.0,0 STARLINK-5893,1 55952U 23037AQ  24137.38603381  .00001645  00000-0  14559-3 0  9993,2 55952  69.9984 134.4781 0003111 273.0864  86.9939 14.98338214 65601,6950.167,96.106,574.195,569.87,0.0
55952.0,STARLINK-5893,PAYLOAD,2024-05-16 17:16:33,14.98333113,0.0003025,69.9986,133.6365,275.2074,84.874,0.00013046,1.464e-05,0.0,0 STARLINK-5893,1 55952U 23037AQ  24137.71983631  .00001464  00000-0  13046-3 0  9998,2 55952  69.9986 133.6365 0003025 275.2074  84.8740 14.98333113 65658,6950.183,96.107,574.151,569.946,0.0
55952.0,STARLINK-5893,PAYLOAD,2024-05-17 06:05:38,14.98338144,0.0003006,69.9986,132.2894,270.6845,89.397,4.9254e-05,4.95e-06,0.0,0 STARLINK-5893,1 55952U 23037AQ  24138.25391229  .00000495  00000-0  49254-4 0  9998,2 55952  69.9986 132.2894 0003006 270.6845  89.3970 14.98338144 65737,6950.168,96.106,574.122,569.943,0.0
